SL-14 R/B               
1 15945U 85069B   26165.07278645  .00000401  00000+0  42506-4 0  9996
2 15945  82.5267 294.2950 0017577 230.0934 129.8738 14.86513392187157
SL-16 R/B               
1 16182U 85097B   26165.11187613 -.00000244  00000+0 -98408-4 0  9999
2 16182  71.0035 297.5526 0005439 117.7740  54.6549 14.16610789100883
SL-14 R/B               
1 16496U 86006B   26165.09064068  .00000550  00000+0  55718-4 0  9998
2 16496  82.5262 169.0274 0075147 313.9265  45.5764 14.86942919163537
COSMOS 1743             
1 16719U 86034A   26165.20892444  .00050729  00000+0  48110-3 0  9997
2 16719  82.5269 331.8983 0003795 284.9644  75.1195 15.66702463195322
SL-14 R/B               
1 16882U 86055B   26165.12716508  .00000376  00000+0  40360-4 0  9991
2 16882  82.5205  36.0100 0019344  17.6404 111.4583 14.85721294133689
SL-14 R/B               
1 17912U 87038B   26165.16499465  .00000306  00000+0  32632-4 0  9998
2 17912  82.5010 205.9190 0018617 201.3932 158.6508 14.85443556 93557
COSMOS 1867             
1 18187U 87060A   26164.98948463 -.00000028  00000+0  27271-4 0  9999
2 18187  65.0116  37.0142 0016446 282.1088  77.8154 14.31515491 33724
COSMOS 1933             
1 18958U 88020A   26165.07257416  .00003315  00000+0  15841-3 0  9994
2 18958  82.5115 155.5192 0003125 197.3434 162.7694 15.18694692 64854
SL-3 R/B                
1 19046U 88032B   26165.21652653  .00004060  00000+0  18599-3 0  9995
2 19046  97.5248 148.2603 0023711 256.1471 103.7126 15.20820950 66779
COSMOS 1953             
1 19210U 88050A   26165.20640132  .00007434  00000+0  25487-3 0  9998
2 19210  82.5086  61.0402 0011939 135.3677 224.8527 15.29940356 52531
SL-8 R/B                
1 19257U 88053B   26165.10718067  .00000152  00000+0  57740-4 0  9992
2 19257  74.0479 294.7348 0019167  91.2006  81.4497 14.38966388990463
COSMOS 1975             
1 19573U 88093A   26165.07907189  .00007528  00000+0  26341-3 0  9994
2 19573  82.5194  20.8290 0011003 182.2738 177.8454 15.29290980 34135
SL-14 R/B               
1 19574U 88093B   26164.91656983  .00000418  00000+0  45117-4 0  9994
2 19574  82.5309 311.7155 0022163  80.5250  40.8820 14.85739646 15306
SL-16 R/B               
1 19650U 88102B   26165.10923831 -.00000245  00000+0 -99603-4 0  9990
2 19650  71.0001 308.6158 0015935 229.7300 130.2431 14.16165138940541
INTERCOSMOS 24          
1 20261U 89080A   26165.15730458  .00000855  00000+0  24261-3 0  9994
2 20261  82.6067  41.6164 1188389  68.9290 303.4600 12.59657396678949
SL-14 R/B               
1 20262U 89080C   26165.12243441  .00000304  00000+0  90750-4 0  9999
2 20262  82.5930 111.2766 1228911 324.4156  28.0660 12.50569139672204
ARIANE 40 R/B           
1 20443U 90005H   26165.12618265  .00000217  00000+0  82318-4 0  9993
2 20443  98.2960 222.8373 0008804 274.9768  85.0415 14.39925875906684
DELTA 2 R/B(1)          
1 20453U 90008B   26164.94463102  .00080584  00000+0  60673-3 0  9998
2 20453  35.6001 257.3443 0065605  83.4720 277.3483 15.68352967941195
COSMOS 2058             
1 20465U 90010A   26165.15741182  .00003861  00000+0  22311-3 0  9995
2 20465  82.4668 312.3425 0009575  11.7102 348.4349 15.11993865956813
SL-14 R/B               
1 20466U 90010B   26165.13292931  .00000343  00000+0  38548-4 0  9999
2 20466  82.5017 176.8133 0019352 346.6482  13.4218 14.83644502942781
